{
  "type": "FeatureCollection",
  "features": [
    {
      "type": "Feature",
      "properties": {
        "norad_id": 28051,
        "name": "IRS-P6 (RESOURCESAT-1)",
        "group": "resource",
        "lat": 9.550019164284281,
        "lon": 27.181989698785287,
        "alt_km": 817.7293034715331,
        "timestamp": "2025-12-14T05:42:18.113897+00:00",
        "meta_object_name": "IRS-P6 (RESOURCESAT-1)",
        "meta_object_id": "2003-046A",
        "meta_epoch": "2025-12-13T16:48:08.779104",
        "meta_mean_motion": 14.36075799,
        "meta_eccentricity": 0.0064206,
        "meta_inclination": 98.218,
        "meta_ra_of_asc_node": 28.0625,
        "meta_arg_of_pericenter": 177.7802,
        "meta_mean_anomaly": 294.4049,
        "meta_ephemeris_type": 0,
        "meta_classification_type": "U",
        "meta_norad_cat_id": 28051,
        "meta_element_set_no": 999,
        "meta_rev_at_epoch": 15390,
        "meta_bstar": 0.00013837172,
        "meta_mean_motion_dot": 3.71e-06,
        "meta_mean_motion_ddot": 0,
        "tle_line1": "1 28051U 03046A   25347.70010161  .00000371  00000+0  13837-3 0  9991",
        "tle_line2": "2 28051  98.2180  28.0625 0064206 177.7802 294.4049 14.36075799153900"
      },
      "geometry": {
        "type": "Point",
        "coordinates": [
          27.181989698785287,
          9.550019164284281
        ]
      }
    },
    {
      "type": "Feature",
      "properties": {
        "norad_id": 28220,
        "name": "SHIYAN-1 (SY-1)",
        "group": "resource",
        "lat": 19.15733686696654,
        "lon": 47.101391756023666,
        "alt_km": 479.54088702195895,
        "timestamp": "2025-12-14T05:42:18.113908+00:00",
        "meta_object_name": "SHIYAN-1 (SY-1)",
        "meta_object_id": "2004-012A",
        "meta_epoch": "2025-12-13T15:28:38.372448",
        "meta_mean_motion": 15.28180516,
        "meta_eccentricity": 0.00055998,
        "meta_inclination": 97.8939,
        "meta_ra_of_asc_node": 49.2364,
        "meta_arg_of_pericenter": 321.933,
        "meta_mean_anomaly": 38.1512,
        "meta_ephemeris_type": 0,
        "meta_classification_type": "U",
        "meta_norad_cat_id": 28220,
        "meta_element_set_no": 999,
        "meta_rev_at_epoch": 18270,
        "meta_bstar": 0.0005430268,
        "meta_mean_motion_dot": 0.00014854,
        "meta_mean_motion_ddot": 0,
        "tle_line1": "1 28220U 04012A   25347.64488857  .00014854  00000+0  54303-3 0  9991",
        "tle_line2": "2 28220  97.8939  49.2364 0005599 321.9330  38.1512 15.28180516182703"
      },
      "geometry": {
        "type": "Point",
        "coordinates": [
          47.101391756023666,
          19.15733686696654
        ]
      }
    },
    {
      "type": "Feature",
      "properties": {
        "norad_id": 28376,
        "name": "AURA",
        "group": "resource",
        "lat": 49.939570285008664,
        "lon": -71.54844262257022,
        "alt_km": 684.8606756047957,
        "timestamp": "2025-12-14T05:42:18.113920+00:00",
        "meta_object_name": "AURA",
        "meta_object_id": "2004-026A",
        "meta_epoch": "2025-12-13T14:40:49.012032",
        "meta_mean_motion": 14.60950176,
        "meta_eccentricity": 0.00012802,
        "meta_inclination": 98.3182,
        "meta_ra_of_asc_node": 297.8424,
        "meta_arg_of_pericenter": 94.4506,
        "meta_mean_anomaly": 265.6841,
        "meta_ephemeris_type": 0,
        "meta_classification_type": "U",
        "meta_norad_cat_id": 28376,
        "meta_element_set_no": 999,
        "meta_rev_at_epoch": 13911,
        "meta_bstar": 0.00034437907,
        "meta_mean_motion_dot": 1.639e-05,
        "meta_mean_motion_ddot": 0,
        "tle_line1": "1 28376U 04026A   25347.61167838  .00001639  00000+0  34438-3 0  9992",
        "tle_line2": "2 28376  98.3182 297.8424 0001280  94.4506 265.6841 14.60950176139110"
      },
      "geometry": {
        "type": "Point",
        "coordinates": [
          -71.54844262257022,
          49.939570285008664
        ]
      }
    },
    {
      "type": "Feature",
      "properties": {
        "norad_id": 28649,
        "name": "IRS-P5 (CARTOSAT-1)",
        "group": "resource",
        "lat": 61.2865852670043,
        "lon": 0.5731779493675532,
        "alt_km": 589.9140511614196,
        "timestamp": "2025-12-14T05:42:18.113932+00:00",
        "meta_object_name": "IRS-P5 (CARTOSAT-1)",
        "meta_object_id": "2005-017A",
        "meta_epoch": "2025-12-13T14:55:31.067904",
        "meta_mean_motion": 14.90409021,
        "meta_eccentricity": 0.00011847,
        "meta_inclination": 97.5499,
        "meta_ra_of_asc_node": 13.9961,
        "meta_arg_of_pericenter": 48.4106,
        "meta_mean_anomaly": 311.7214,
        "meta_ephemeris_type": 0,
        "meta_classification_type": "U",
        "meta_norad_cat_id": 28649,
        "meta_element_set_no": 999,
        "meta_rev_at_epoch": 11617,
        "meta_bstar": 0.00028320564,
        "meta_mean_motion_dot": 2.706e-05,
        "meta_mean_motion_ddot": 0,
        "tle_line1": "1 28649U 05017A   25347.62188736  .00002706  00000+0  28321-3 0  9997",
        "tle_line2": "2 28649  97.5499  13.9961 0001184  48.4106 311.7214 14.90409021116175"
      },
      "geometry": {
        "type": "Point",
        "coordinates": [
          0.5731779493675532,
          61.2865852670043
        ]
      }
    },
    {
      "type": "Feature",
      "properties": {
        "norad_id": 28893,
        "name": "SINAH 1",
        "group": "resource",
        "lat": -81.04906852125224,
        "lon": -175.93234105727788,
        "alt_km": 696.1779667135797,
        "timestamp": "2025-12-14T05:42:18.113943+00:00",
        "meta_object_name": "SINAH 1",
        "meta_object_id": "2005-043D",
        "meta_epoch": "2025-12-13T15:20:15.996192",
        "meta_mean_motion": 14.63963873,
        "meta_eccentricity": 0.00153877,
        "meta_inclination": 98.2603,
        "meta_ra_of_asc_node": 116.1986,
        "meta_arg_of_pericenter": 134.3424,
        "meta_mean_anomaly": 225.9042,
        "meta_ephemeris_type": 0,
        "meta_classification_type": "U",
        "meta_norad_cat_id": 28893,
        "meta_element_set_no": 999,
        "meta_rev_at_epoch": 7337,
        "meta_bstar": 0.00014733579,
        "meta_mean_motion_dot": 7.24e-06,
        "meta_mean_motion_ddot": 0,
        "tle_line1": "1 28893U 05043D   25347.63907403  .00000724  00000+0  14734-3 0  9999",
        "tle_line2": "2 28893  98.2603 116.1986 0015387 134.3424 225.9042 14.63963873 73371"
      },
      "geometry": {
        "type": "Point",
        "coordinates": [
          -175.93234105727788,
          -81.04906852125224
        ]
      }
    },
    {
      "type": "Feature",
      "properties": {
        "norad_id": 29079,
        "name": "EROS B",
        "group": "resource",
        "lat": 53.61182740918318,
        "lon": -65.03446356653379,
        "alt_km": 358.96397666815847,
        "timestamp": "2025-12-14T05:42:18.113955+00:00",
        "meta_object_name": "EROS B",
        "meta_object_id": "2006-014A",
        "meta_epoch": "2025-12-13T15:23:33.953280",
        "meta_mean_motion": 15.68631586,
        "meta_eccentricity": 0.00024635,
        "meta_inclination": 97.3465,
        "meta_ra_of_asc_node": 104.2574,
        "meta_arg_of_pericenter": 307.18,
        "meta_mean_anomaly": 52.9236,
        "meta_ephemeris_type": 0,
        "meta_classification_type": "U",
        "meta_norad_cat_id": 29079,
        "meta_element_set_no": 999,
        "meta_rev_at_epoch": 9094,
        "meta_bstar": 0.0014787052,
        "meta_mean_motion_dot": 0.00170804,
        "meta_mean_motion_ddot": 0,
        "tle_line1": "1 29079U 06014A   25347.64136520  .00170804  00000+0  14787-2 0  9994",
        "tle_line2": "2 29079  97.3465 104.2574 0002463 307.1800  52.9236 15.68631586 90948"
      },
      "geometry": {
        "type": "Point",
        "coordinates": [
          -65.03446356653379,
          53.61182740918318
        ]
      }
    },
    {
      "type": "Feature",
      "properties": {
        "norad_id": 29228,
        "name": "RESURS-DK 1",
        "group": "resource",
        "lat": 68.04629291710032,
        "lon": -147.10676243684486,
        "alt_km": 526.931085020824,
        "timestamp": "2025-12-14T05:42:18.113967+00:00",
        "meta_object_name": "RESURS-DK 1",
        "meta_object_id": "2006-021A",
        "meta_epoch": "2025-12-13T16:34:03.544320",
        "meta_mean_motion": 15.12168188,
        "meta_eccentricity": 0.00071518,
        "meta_inclination": 69.9333,
        "meta_ra_of_asc_node": 99.3818,
        "meta_arg_of_pericenter": 258.4123,
        "meta_mean_anomaly": 101.624,
        "meta_ephemeris_type": 0,
        "meta_classification_type": "U",
        "meta_norad_cat_id": 29228,
        "meta_element_set_no": 999,
        "meta_rev_at_epoch": 7452,
        "meta_bstar": 0.00021648427,
        "meta_mean_motion_dot": 3.638e-05,
        "meta_mean_motion_ddot": 0,
        "tle_line1": "1 29228U 06021A   25347.69031880  .00003638  00000+0  21648-3 0  9991",
        "tle_line2": "2 29228  69.9333  99.3818 0007151 258.4123 101.6240 15.12168188 74528"
      },
      "geometry": {
        "type": "Point",
        "coordinates": [
          -147.10676243684486,
          68.04629291710032
        ]
      }
    }
  ]
}